{
  "type": "FeatureCollection",
  "features": [
    {
      "type": "Feature",
      "properties": {
        "norad_id": 34420,
        "name": "COSMOS 2251 DEB",
        "group": "cosmos-2251-debris",
        "lat": -2.343966401241106,
        "lon": 107.38693601996039,
        "alt_km": 715.2956915566592,
        "timestamp": "2025-12-10T14:53:37.482242+00:00",
        "meta_object_name": "COSMOS 2251 DEB",
        "meta_object_id": "1993-036RM",
        "meta_epoch": "2025-12-10T03:44:43.902816",
        "meta_mean_motion": 14.68284786,
        "meta_eccentricity": 0.010674,
        "meta_inclination": 74.0335,
        "meta_ra_of_asc_node": 108.9565,
        "meta_arg_of_pericenter": 230.692,
        "meta_mean_anomaly": 191.7202,
        "meta_ephemeris_type": 0,
        "meta_classification_type": "U",
        "meta_norad_cat_id": 34420,
        "meta_element_set_no": 999,
        "meta_rev_at_epoch": 89732,
        "meta_bstar": 0.00038170743,
        "meta_mean_motion_dot": 2.365e-05,
        "meta_mean_motion_ddot": 0,
        "tle_line1": "1 34420U 93036RM  25344.15606369  .00002365  00000+0  38171-3 0  9996",
        "tle_line2": "2 34420  74.0335 108.9565 0106740 230.6920 191.7202 14.68284786897326"
      },
      "geometry": {
        "type": "Point",
        "coordinates": [
          107.38693601996039,
          -2.343966401241106
        ]
      }
    },
    {
      "type": "Feature",
      "properties": {
        "norad_id": 34425,
        "name": "COSMOS 2251 DEB",
        "group": "cosmos-2251-debris",
        "lat": 46.53046416978673,
        "lon": -139.01682130564424,
        "alt_km": 671.7139772530909,
        "timestamp": "2025-12-10T14:53:37.482251+00:00",
        "meta_object_name": "COSMOS 2251 DEB",
        "meta_object_id": "1993-036RS",
        "meta_epoch": "2025-12-10T07:43:38.532000",
        "meta_mean_motion": 14.62106686,
        "meta_eccentricity": 0.00249717,
        "meta_inclination": 74.02,
        "meta_ra_of_asc_node": 59.1504,
        "meta_arg_of_pericenter": 186.2301,
        "meta_mean_anomaly": 173.8559,
        "meta_ephemeris_type": 0,
        "meta_classification_type": "U",
        "meta_norad_cat_id": 34425,
        "meta_element_set_no": 999,
        "meta_rev_at_epoch": 88705,
        "meta_bstar": 0.00092732203,
        "meta_mean_motion_dot": 4.654e-05,
        "meta_mean_motion_ddot": 0,
        "tle_line1": "1 34425U 93036RS  25344.32197375  .00004654  00000+0  92732-3 0  9998",
        "tle_line2": "2 34425  74.0200  59.1504 0024971 186.2301 173.8559 14.62106686887057"
      },
      "geometry": {
        "type": "Point",
        "coordinates": [
          -139.01682130564424,
          46.53046416978673
        ]
      }
    },
    {
      "type": "Feature",
      "properties": {
        "norad_id": 34429,
        "name": "COSMOS 2251 DEB",
        "group": "cosmos-2251-debris",
        "lat": -51.14934889978712,
        "lon": 151.70686487517713,
        "alt_km": 450.2225416672254,
        "timestamp": "2025-12-10T14:53:37.482261+00:00",
        "meta_object_name": "COSMOS 2251 DEB",
        "meta_object_id": "1993-036RW",
        "meta_epoch": "2025-12-09T18:55:19.990848",
        "meta_mean_motion": 15.39922676,
        "meta_eccentricity": 0.00064901,
        "meta_inclination": 73.9711,
        "meta_ra_of_asc_node": 174.4232,
        "meta_arg_of_pericenter": 17.7629,
        "meta_mean_anomaly": 356.5189,
        "meta_ephemeris_type": 0,
        "meta_classification_type": "U",
        "meta_norad_cat_id": 34429,
        "meta_element_set_no": 999,
        "meta_rev_at_epoch": 89403,
        "meta_bstar": 0.005735282,
        "meta_mean_motion_dot": 0.00235648,
        "meta_mean_motion_ddot": 0,
        "tle_line1": "1 34429U 93036RW  25343.78842582  .00235648  00000+0  57353-2 0  9996",
        "tle_line2": "2 34429  73.9711 174.4232 0006490  17.7629 356.5189 15.39922676894037"
      },
      "geometry": {
        "type": "Point",
        "coordinates": [
          151.70686487517713,
          -51.14934889978712
        ]
      }
    },
    {
      "type": "Feature",
      "properties": {
        "norad_id": 34430,
        "name": "COSMOS 2251 DEB",
        "group": "cosmos-2251-debris",
        "lat": 73.20940852220119,
        "lon": 18.6517626975862,
        "alt_km": 735.5756665861281,
        "timestamp": "2025-12-10T14:53:37.482270+00:00",
        "meta_object_name": "COSMOS 2251 DEB",
        "meta_object_id": "1993-036RX",
        "meta_epoch": "2025-12-09T15:09:24.801984",
        "meta_mean_motion": 14.39617534,
        "meta_eccentricity": 0.0060202,
        "meta_inclination": 74.0523,
        "meta_ra_of_asc_node": 309.0966,
        "meta_arg_of_pericenter": 19.4795,
        "meta_mean_anomaly": 340.864,
        "meta_ephemeris_type": 0,
        "meta_classification_type": "U",
        "meta_norad_cat_id": 34430,
        "meta_element_set_no": 999,
        "meta_rev_at_epoch": 87910,
        "meta_bstar": 0.00090432,
        "meta_mean_motion_dot": 2.862e-05,
        "meta_mean_motion_ddot": 0,
        "tle_line1": "1 34430U 93036RX  25343.63153706  .00002862  00000+0  90432-3 0  9991",
        "tle_line2": "2 34430  74.0523 309.0966 0060202  19.4795 340.8640 14.39617534879108"
      },
      "geometry": {
        "type": "Point",
        "coordinates": [
          18.6517626975862,
          73.20940852220119
        ]
      }
    },
    {
      "type": "Feature",
      "properties": {
        "norad_id": 34431,
        "name": "COSMOS 2251 DEB",
        "group": "cosmos-2251-debris",
        "lat": 62.93185520418003,
        "lon": -146.99671222863506,
        "alt_km": 795.432700348134,
        "timestamp": "2025-12-10T14:53:37.482279+00:00",
        "meta_object_name": "COSMOS 2251 DEB",
        "meta_object_id": "1993-036RY",
        "meta_epoch": "2025-12-09T23:27:02.345472",
        "meta_mean_motion": 14.28759324,
        "meta_eccentricity": 0.0068412,
        "meta_inclination": 74.0746,
        "meta_ra_of_asc_node": 180.2002,
        "meta_arg_of_pericenter": 166.6572,
        "meta_mean_anomaly": 193.6408,
        "meta_ephemeris_type": 0,
        "meta_classification_type": "U",
        "meta_norad_cat_id": 34431,
        "meta_element_set_no": 999,
        "meta_rev_at_epoch": 87103,
        "meta_bstar": 0.00077362486,
        "meta_mean_motion_dot": 1.973e-05,
        "meta_mean_motion_ddot": 0,
        "tle_line1": "1 34431U 93036RY  25343.97711048  .00001973  00000+0  77362-3 0  9997",
        "tle_line2": "2 34431  74.0746 180.2002 0068412 166.6572 193.6408 14.28759324871037"
      },
      "geometry": {
        "type": "Point",
        "coordinates": [
          -146.99671222863506,
          62.93185520418003
        ]
      }
    },
    {
      "type": "Feature",
      "properties": {
        "norad_id": 34432,
        "name": "COSMOS 2251 DEB",
        "group": "cosmos-2251-debris",
        "lat": -73.3967017964418,
        "lon": 29.367948421451796,
        "alt_km": 876.1711320343238,
        "timestamp": "2025-12-10T14:53:37.482288+00:00",
        "meta_object_name": "COSMOS 2251 DEB",
        "meta_object_id": "1993-036RZ",
        "meta_epoch": "2025-12-09T19:30:43.256160",
        "meta_mean_motion": 14.02887918,
        "meta_eccentricity": 0.01827555,
        "meta_inclination": 73.8286,
        "meta_ra_of_asc_node": 107.4812,
        "meta_arg_of_pericenter": 190.6056,
        "meta_mean_anomaly": 324.0899,
        "meta_ephemeris_type": 0,
        "meta_classification_type": "U",
        "meta_norad_cat_id": 34432,
        "meta_element_set_no": 999,
        "meta_rev_at_epoch": 85643,
        "meta_bstar": 0.0021957178,
        "meta_mean_motion_dot": 3.918e-05,
        "meta_mean_motion_ddot": 0,
        "tle_line1": "1 34432U 93036RZ  25343.81300065  .00003918  00000+0  21957-2 0  9993",
        "tle_line2": "2 34432  73.8286 107.4812 0182755 190.6056 324.0899 14.02887918856439"
      },
      "geometry": {
        "type": "Point",
        "coordinates": [
          29.367948421451796,
          -73.3967017964418
        ]
      }
    },
    {
      "type": "Feature",
      "properties": {
        "norad_id": 34433,
        "name": "COSMOS 2251 DEB",
        "group": "cosmos-2251-debris",
        "lat": -36.75087483284924,
        "lon": -8.941891791522,
        "alt_km": 832.6119775439847,
        "timestamp": "2025-12-10T14:53:37.482297+00:00",
        "meta_object_name": "COSMOS 2251 DEB",
        "meta_object_id": "1993-036SA",
        "meta_epoch": "2025-12-08T22:45:44.652672",
        "meta_mean_motion": 14.12826602,
        "meta_eccentricity": 0.0151933,
        "meta_inclination": 74.0116,
        "meta_ra_of_asc_node": 161.6553,
        "meta_arg_of_pericenter": 300.4832,
        "meta_mean_anomaly": 58.1378,
        "meta_ephemeris_type": 0,
        "meta_classification_type": "U",
        "meta_norad_cat_id": 34433,
        "meta_element_set_no": 999,
        "meta_rev_at_epoch": 85896,
        "meta_bstar": 0.0014623,
        "meta_mean_motion_dot": 3.008e-05,
        "meta_mean_motion_ddot": 0,
        "tle_line1": "1 34433U 93036SA  25342.94843348  .00003008  00000+0  14623-2 0  9995",
        "tle_line2": "2 34433  74.0116 161.6553 0151933 300.4832  58.1378 14.12826602858967"
      },
      "geometry": {
        "type": "Point",
        "coordinates": [
          -8.941891791522,
          -36.75087483284924
        ]
      }
    }
  ]
}